STARLINK-36435          
1 67568U 26016H   26044.81919590  .00284242  00000+0  14343-2 0  9993
2 67568  97.2845 104.0950 0000126 269.2370  90.8884 15.80853196  3046
STARLINK-36575          
1 67569U 26016J   26044.75467992  .00292031  00000+0  14679-2 0  9998
2 67569  97.2837 104.0325 0001290  79.8432 280.2982 15.80919553  3034
STARLINK-36562          
1 67570U 26016K   26044.88037059  .00219314  00000+0  11130-2 0  9993
2 67570  97.2839 104.1671 0001402  83.2681 276.8747 15.80898631  3058
STARLINK-36578          
1 67571U 26016L   26044.89536663  .00279969  00000+0  18091-2 0  9995
2 67571  97.2844 104.1458 0001256 114.9350 245.2046 15.75291369  3051
STARLINK-36350          
1 67572U 26016M   26044.91668981 -.00114586  00000+0 -77637-3 0  9995
2 67572  97.2854 104.1862 0001436  85.8149  79.1485 15.75228984  4116
STARLINK-36588          
1 67573U 26016N   26044.91668981 -.00032048  00000+0 -21482-3 0  9995
2 67573  97.2849 104.1827 0001410  68.4561  84.5198 15.75187833  4274
STARLINK-36594          
1 67574U 26016P   26044.87565684  .00235070  00000+0  11899-2 0  9995
2 67574  97.2841 104.1715 0001216  82.2051 277.9355 15.80913573  3057
STARLINK-36400          
1 67575U 26016Q   26044.87465785  .00302922  00000+0  15185-2 0  9990
2 67575  97.2842 104.1701 0001034 127.4547 232.6816 15.80951414  3050
STARLINK-36591          
1 67576U 26016R   26044.81032164  .00252998  00000+0  12776-2 0  9996
2 67576  97.2839 104.1075 0001330  83.9482 276.1938 15.80918398  3045
STARLINK-36590          
1 67577U 26016S   26044.91668981  .00022841  00000+0  15380-3 0  9997
2 67577  97.2846 104.2143 0001765  84.2857 146.6800 15.75158921  4225
STARLINK-36613          
1 67578U 26016T   26044.68162528  .00233099  00000+0  11813-2 0  9993
2 67578  97.2842 103.9758 0001964  80.6990 279.4500 15.80891662  3020
STARLINK-36571          
1 67579U 26016U   26044.91668981 -.00128370  00000+0 -87094-3 0  9996
2 67579  97.2845 104.2057 0001553 100.6800 108.2734 15.75237213  4228
