CCSDS_OMM_VERS = 2.0
CREATION_DATE  = 
ORIGINATOR     = 

OBJECT_NAME    = STARLINK-36435
OBJECT_ID      = 2026-016H
CENTER_NAME    = EARTH
REF_FRAME      = TEME
TIME_SYSTEM    = UTC
MEAN_ELEMENT_THEORY = SGP/SGP4

EPOCH          = 2026-02-13T19:39:38.525760
MEAN_MOTION    = 15.80853196
ECCENTRICITY   = .00001269
INCLINATION    = 97.2845
RA_OF_ASC_NODE = 104.0950
ARG_OF_PERICENTER = 269.2370
MEAN_ANOMALY   = 90.8884

EPHEMERIS_TYPE = 0
CLASSIFICATION_TYPE = U
NORAD_CAT_ID   = 67568
ELEMENT_SET_NO = 999
REV_AT_EPOCH   = 304
BSTAR          = .14343153E-2
MEAN_MOTION_DOT = .284242E-2
MEAN_MOTION_DDOT = 0

CCSDS_OMM_VERS = 2.0
CREATION_DATE  = 
ORIGINATOR     = 

OBJECT_NAME    = STARLINK-36575
OBJECT_ID      = 2026-016J
CENTER_NAME    = EARTH
REF_FRAME      = TEME
TIME_SYSTEM    = UTC
MEAN_ELEMENT_THEORY = SGP/SGP4

EPOCH          = 2026-02-13T18:06:44.345088
MEAN_MOTION    = 15.80919553
ECCENTRICITY   = .00012902
INCLINATION    = 97.2837
RA_OF_ASC_NODE = 104.0325
ARG_OF_PERICENTER = 79.8432
MEAN_ANOMALY   = 280.2982

EPHEMERIS_TYPE = 0
CLASSIFICATION_TYPE = U
NORAD_CAT_ID   = 67569
ELEMENT_SET_NO = 999
REV_AT_EPOCH   = 303
BSTAR          = .14679206E-2
MEAN_MOTION_DOT = .292031E-2
MEAN_MOTION_DDOT = 0

CCSDS_OMM_VERS = 2.0
CREATION_DATE  = 
ORIGINATOR     = 

OBJECT_NAME    = STARLINK-36562
OBJECT_ID      = 2026-016K
CENTER_NAME    = EARTH
REF_FRAME      = TEME
TIME_SYSTEM    = UTC
MEAN_ELEMENT_THEORY = SGP/SGP4

EPOCH          = 2026-02-13T21:07:44.018976
MEAN_MOTION    = 15.80898631
ECCENTRICITY   = .00014022
INCLINATION    = 97.2839
RA_OF_ASC_NODE = 104.1671
ARG_OF_PERICENTER = 83.2681
MEAN_ANOMALY   = 276.8747

EPHEMERIS_TYPE = 0
CLASSIFICATION_TYPE = U
NORAD_CAT_ID   = 67570
ELEMENT_SET_NO = 999
REV_AT_EPOCH   = 305
BSTAR          = .11129597E-2
MEAN_MOTION_DOT = .219314E-2
MEAN_MOTION_DDOT = 0

CCSDS_OMM_VERS = 2.0
CREATION_DATE  = 
ORIGINATOR     = 

OBJECT_NAME    = STARLINK-36578
OBJECT_ID      = 2026-016L
CENTER_NAME    = EARTH
REF_FRAME      = TEME
TIME_SYSTEM    = UTC
MEAN_ELEMENT_THEORY = SGP/SGP4

EPOCH          = 2026-02-13T21:29:19.676832
MEAN_MOTION    = 15.75291369
ECCENTRICITY   = .00012563
INCLINATION    = 97.2844
RA_OF_ASC_NODE = 104.1458
ARG_OF_PERICENTER = 114.9350
MEAN_ANOMALY   = 245.2046

EPHEMERIS_TYPE = 0
CLASSIFICATION_TYPE = U
NORAD_CAT_ID   = 67571
ELEMENT_SET_NO = 999
REV_AT_EPOCH   = 305
BSTAR          = .18090883E-2
MEAN_MOTION_DOT = .279969E-2
MEAN_MOTION_DDOT = 0

CCSDS_OMM_VERS = 2.0
CREATION_DATE  = 
ORIGINATOR     = 

OBJECT_NAME    = STARLINK-36350
OBJECT_ID      = 2026-016M
CENTER_NAME    = EARTH
REF_FRAME      = TEME
TIME_SYSTEM    = UTC
MEAN_ELEMENT_THEORY = SGP/SGP4

EPOCH          = 2026-02-13T22:00:01.999584
MEAN_MOTION    = 15.75228984
ECCENTRICITY   = .00014367
INCLINATION    = 97.2854
RA_OF_ASC_NODE = 104.1862
ARG_OF_PERICENTER = 85.8149
MEAN_ANOMALY   = 79.1485

EPHEMERIS_TYPE = 0
CLASSIFICATION_TYPE = U
NORAD_CAT_ID   = 67572
ELEMENT_SET_NO = 999
REV_AT_EPOCH   = 411
BSTAR          = -.77636942E-3
MEAN_MOTION_DOT = -.114586E-2
MEAN_MOTION_DDOT = 0

CCSDS_OMM_VERS = 2.0
CREATION_DATE  = 
ORIGINATOR     = 

OBJECT_NAME    = STARLINK-36588
OBJECT_ID      = 2026-016N
CENTER_NAME    = EARTH
REF_FRAME      = TEME
TIME_SYSTEM    = UTC
MEAN_ELEMENT_THEORY = SGP/SGP4

EPOCH          = 2026-02-13T22:00:01.999584
MEAN_MOTION    = 15.75187833
ECCENTRICITY   = .00014101
INCLINATION    = 97.2849
RA_OF_ASC_NODE = 104.1827
ARG_OF_PERICENTER = 68.4561
MEAN_ANOMALY   = 84.5198

EPHEMERIS_TYPE = 0
CLASSIFICATION_TYPE = U
NORAD_CAT_ID   = 67573
ELEMENT_SET_NO = 999
REV_AT_EPOCH   = 427
BSTAR          = -.21481693E-3
MEAN_MOTION_DOT = -.32048E-3
MEAN_MOTION_DDOT = 0

CCSDS_OMM_VERS = 2.0
CREATION_DATE  = 
ORIGINATOR     = 

OBJECT_NAME    = STARLINK-36594
OBJECT_ID      = 2026-016P
CENTER_NAME    = EARTH
REF_FRAME      = TEME
TIME_SYSTEM    = UTC
MEAN_ELEMENT_THEORY = SGP/SGP4

EPOCH          = 2026-02-13T21:00:56.750976
MEAN_MOTION    = 15.80913573
ECCENTRICITY   = .00012164
INCLINATION    = 97.2841
RA_OF_ASC_NODE = 104.1715
ARG_OF_PERICENTER = 82.2051
MEAN_ANOMALY   = 277.9355

EPHEMERIS_TYPE = 0
CLASSIFICATION_TYPE = U
NORAD_CAT_ID   = 67574
ELEMENT_SET_NO = 999
REV_AT_EPOCH   = 305
BSTAR          = .11898859E-2
MEAN_MOTION_DOT = .23507E-2
MEAN_MOTION_DDOT = 0

CCSDS_OMM_VERS = 2.0
CREATION_DATE  = 
ORIGINATOR     = 

OBJECT_NAME    = STARLINK-36400
OBJECT_ID      = 2026-016Q
CENTER_NAME    = EARTH
REF_FRAME      = TEME
TIME_SYSTEM    = UTC
MEAN_ELEMENT_THEORY = SGP/SGP4

EPOCH          = 2026-02-13T20:59:30.438240
MEAN_MOTION    = 15.80951414
ECCENTRICITY   = .00010342
INCLINATION    = 97.2842
RA_OF_ASC_NODE = 104.1701
ARG_OF_PERICENTER = 127.4547
MEAN_ANOMALY   = 232.6816

EPHEMERIS_TYPE = 0
CLASSIFICATION_TYPE = U
NORAD_CAT_ID   = 67575
ELEMENT_SET_NO = 999
REV_AT_EPOCH   = 305
BSTAR          = .15184988E-2
MEAN_MOTION_DOT = .302922E-2
MEAN_MOTION_DDOT = 0

CCSDS_OMM_VERS = 2.0
CREATION_DATE  = 
ORIGINATOR     = 

OBJECT_NAME    = STARLINK-36591
OBJECT_ID      = 2026-016R
CENTER_NAME    = EARTH
REF_FRAME      = TEME
TIME_SYSTEM    = UTC
MEAN_ELEMENT_THEORY = SGP/SGP4

EPOCH          = 2026-02-13T19:26:51.789696
MEAN_MOTION    = 15.80918398
ECCENTRICITY   = .00013309
INCLINATION    = 97.2839
RA_OF_ASC_NODE = 104.1075
ARG_OF_PERICENTER = 83.9482
MEAN_ANOMALY   = 276.1938

EPHEMERIS_TYPE = 0
CLASSIFICATION_TYPE = U
NORAD_CAT_ID   = 67576
ELEMENT_SET_NO = 999
REV_AT_EPOCH   = 304
BSTAR          = .12776433E-2
MEAN_MOTION_DOT = .252998E-2
MEAN_MOTION_DDOT = 0

CCSDS_OMM_VERS = 2.0
CREATION_DATE  = 
ORIGINATOR     = 

OBJECT_NAME    = STARLINK-36590
OBJECT_ID      = 2026-016S
CENTER_NAME    = EARTH
REF_FRAME      = TEME
TIME_SYSTEM    = UTC
MEAN_ELEMENT_THEORY = SGP/SGP4

EPOCH          = 2026-02-13T22:00:01.999584
MEAN_MOTION    = 15.75158921
ECCENTRICITY   = .00017652
INCLINATION    = 97.2846
RA_OF_ASC_NODE = 104.2143
ARG_OF_PERICENTER = 84.2857
MEAN_ANOMALY   = 146.6800

EPHEMERIS_TYPE = 0
CLASSIFICATION_TYPE = U
NORAD_CAT_ID   = 67577
ELEMENT_SET_NO = 999
REV_AT_EPOCH   = 422
BSTAR          = .15379854E-3
MEAN_MOTION_DOT = .22841E-3
MEAN_MOTION_DDOT = 0

CCSDS_OMM_VERS = 2.0
CREATION_DATE  = 
ORIGINATOR     = 

OBJECT_NAME    = STARLINK-36613
OBJECT_ID      = 2026-016T
CENTER_NAME    = EARTH
REF_FRAME      = TEME
TIME_SYSTEM    = UTC
MEAN_ELEMENT_THEORY = SGP/SGP4

EPOCH          = 2026-02-13T16:21:32.424192
MEAN_MOTION    = 15.80891662
ECCENTRICITY   = .0001964
INCLINATION    = 97.2842
RA_OF_ASC_NODE = 103.9758
ARG_OF_PERICENTER = 80.6990
MEAN_ANOMALY   = 279.4500

EPHEMERIS_TYPE = 0
CLASSIFICATION_TYPE = U
NORAD_CAT_ID   = 67578
ELEMENT_SET_NO = 999
REV_AT_EPOCH   = 302
BSTAR          = .11813406E-2
MEAN_MOTION_DOT = .233099E-2
MEAN_MOTION_DDOT = 0

CCSDS_OMM_VERS = 2.0
CREATION_DATE  = 
ORIGINATOR     = 

OBJECT_NAME    = STARLINK-36571
OBJECT_ID      = 2026-016U
CENTER_NAME    = EARTH
REF_FRAME      = TEME
TIME_SYSTEM    = UTC
MEAN_ELEMENT_THEORY = SGP/SGP4

EPOCH          = 2026-02-13T22:00:01.999584
MEAN_MOTION    = 15.75237213
ECCENTRICITY   = .00015531
INCLINATION    = 97.2845
RA_OF_ASC_NODE = 104.2057
ARG_OF_PERICENTER = 100.6800
MEAN_ANOMALY   = 108.2734

EPHEMERIS_TYPE = 0
CLASSIFICATION_TYPE = U
NORAD_CAT_ID   = 67579
ELEMENT_SET_NO = 999
REV_AT_EPOCH   = 422
BSTAR          = -.87093535E-3
MEAN_MOTION_DOT = -.12837E-2
MEAN_MOTION_DDOT = 0

